STARLINK-35295          
1 66070U 25235N   25320.52209838  .00052514  00000+0  94536-3 0  9991
2 66070  53.1615  52.4295 0001387  79.2407 280.8758 15.49325613  5571
STARLINK-35323          
1 66071U 25235P   25320.52244181  .00174010  00000+0  30649-2 0  9992
2 66071  53.1623  52.4322 0001216  80.2441 279.8705 15.49334242  5571
STARLINK-35299          
1 66072U 25235Q   25320.49072703  .00076260  00000+0  18977-2 0  9996
2 66072  53.1614  52.9476 0001824  65.9242 294.1954 15.39616368  5567
STARLINK-35274          
1 66073U 25235R   25320.48607142  .00053629  00000+0  13406-2 0  9993
2 66073  53.1617  52.9177 0001305 103.3731 256.7419 15.39635729  5565
STARLINK-35321          
1 66074U 25235S   25320.50002315  .00027739  00000+0  70197-3 0  9992
2 66074  53.1598  52.8010 0001183  97.0897   6.1274 15.39574142  5652
STARLINK-35131          
1 66075U 25235T   25320.50002315 -.00115238  00000+0 -29096-2 0  9998
2 66075  53.1609  52.6459 0001766  78.3350 102.0813 15.39670980  5656
STARLINK-34801          
1 66076U 25235U   25320.50002315  .00050802  00000+0  12748-2 0  9998
2 66076  53.1599  52.7491 0000672  85.5424  43.4051 15.39542734  5656
STARLINK-35129          
1 66077U 25235V   25320.50002315 -.00104825  00000+0 -26435-2 0  9994
2 66077  53.1604  52.6985 0001624  58.8757  95.8133 15.39656449  5652
STARLINK-35116          
1 66078U 25235W   25320.50002315 -.02381883  00000+0 -61733-1 0  9997
2 66078  53.1608  52.5463 0001449  89.3441 140.5897 15.42048973  5657
STARLINK-35402          
1 66079U 25235X   25320.50002315 -.02064370  00000+0 -48621-1 0  9998
2 66079  53.1609  52.5141 0001349  84.5702 161.9215 15.44927056  5659
STARLINK-35325          
1 66080U 25235Y   25320.50002315  .00047873  00000+0  12011-2 0  9990
2 66080  53.1612  52.5935 0001629  66.4933 139.7140 15.39573407  5653
STARLINK-35403          
1 66081U 25235Z   25320.50002315 -.00167952  00000+0 -30709-2 0  9998
2 66081  53.1608  52.4920 0001266  93.9964 164.0034 15.49364693  5657
