CCSDS_OMM_VERS = 2.0
CREATION_DATE  = 
ORIGINATOR     = 

OBJECT_NAME    = STARLINK-35295
OBJECT_ID      = 2025-235N
CENTER_NAME    = EARTH
REF_FRAME      = TEME
TIME_SYSTEM    = UTC
MEAN_ELEMENT_THEORY = SGP/SGP4

EPOCH          = 2025-11-16T12:31:49.300032
MEAN_MOTION    = 15.49325613
ECCENTRICITY   = .0001387
INCLINATION    = 53.1615
RA_OF_ASC_NODE = 52.4295
ARG_OF_PERICENTER = 79.2407
MEAN_ANOMALY   = 280.8758

EPHEMERIS_TYPE = 0
CLASSIFICATION_TYPE = U
NORAD_CAT_ID   = 66070
ELEMENT_SET_NO = 999
REV_AT_EPOCH   = 557
BSTAR          = .94536E-3
MEAN_MOTION_DOT = .52514E-3
MEAN_MOTION_DDOT = 0

CCSDS_OMM_VERS = 2.0
CREATION_DATE  = 
ORIGINATOR     = 

OBJECT_NAME    = STARLINK-35323
OBJECT_ID      = 2025-235P
CENTER_NAME    = EARTH
REF_FRAME      = TEME
TIME_SYSTEM    = UTC
MEAN_ELEMENT_THEORY = SGP/SGP4

EPOCH          = 2025-11-16T12:32:18.972384
MEAN_MOTION    = 15.49334242
ECCENTRICITY   = .0001216
INCLINATION    = 53.1623
RA_OF_ASC_NODE = 52.4322
ARG_OF_PERICENTER = 80.2441
MEAN_ANOMALY   = 279.8705

EPHEMERIS_TYPE = 0
CLASSIFICATION_TYPE = U
NORAD_CAT_ID   = 66071
ELEMENT_SET_NO = 999
REV_AT_EPOCH   = 557
BSTAR          = .30649E-2
MEAN_MOTION_DOT = .17401E-2
MEAN_MOTION_DDOT = 0

CCSDS_OMM_VERS = 2.0
CREATION_DATE  = 
ORIGINATOR     = 

OBJECT_NAME    = STARLINK-35299
OBJECT_ID      = 2025-235Q
CENTER_NAME    = EARTH
REF_FRAME      = TEME
TIME_SYSTEM    = UTC
MEAN_ELEMENT_THEORY = SGP/SGP4

EPOCH          = 2025-11-16T11:46:38.815392
MEAN_MOTION    = 15.39616368
ECCENTRICITY   = .0001824
INCLINATION    = 53.1614
RA_OF_ASC_NODE = 52.9476
ARG_OF_PERICENTER = 65.9242
MEAN_ANOMALY   = 294.1954

EPHEMERIS_TYPE = 0
CLASSIFICATION_TYPE = U
NORAD_CAT_ID   = 66072
ELEMENT_SET_NO = 999
REV_AT_EPOCH   = 556
BSTAR          = .18977E-2
MEAN_MOTION_DOT = .7626E-3
MEAN_MOTION_DDOT = 0

CCSDS_OMM_VERS = 2.0
CREATION_DATE  = 
ORIGINATOR     = 

OBJECT_NAME    = STARLINK-35274
OBJECT_ID      = 2025-235R
CENTER_NAME    = EARTH
REF_FRAME      = TEME
TIME_SYSTEM    = UTC
MEAN_ELEMENT_THEORY = SGP/SGP4

EPOCH          = 2025-11-16T11:39:56.570688
MEAN_MOTION    = 15.39635729
ECCENTRICITY   = .0001305
INCLINATION    = 53.1617
RA_OF_ASC_NODE = 52.9177
ARG_OF_PERICENTER = 103.3731
MEAN_ANOMALY   = 256.7419

EPHEMERIS_TYPE = 0
CLASSIFICATION_TYPE = U
NORAD_CAT_ID   = 66073
ELEMENT_SET_NO = 999
REV_AT_EPOCH   = 556
BSTAR          = .13406E-2
MEAN_MOTION_DOT = .53629E-3
MEAN_MOTION_DDOT = 0

CCSDS_OMM_VERS = 2.0
CREATION_DATE  = 
ORIGINATOR     = 

OBJECT_NAME    = STARLINK-35321
OBJECT_ID      = 2025-235S
CENTER_NAME    = EARTH
REF_FRAME      = TEME
TIME_SYSTEM    = UTC
MEAN_ELEMENT_THEORY = SGP/SGP4

EPOCH          = 2025-11-16T12:00:02.000160
MEAN_MOTION    = 15.39574142
ECCENTRICITY   = .0001183
INCLINATION    = 53.1598
RA_OF_ASC_NODE = 52.8010
ARG_OF_PERICENTER = 97.0897
MEAN_ANOMALY   = 6.1274

EPHEMERIS_TYPE = 0
CLASSIFICATION_TYPE = U
NORAD_CAT_ID   = 66074
ELEMENT_SET_NO = 999
REV_AT_EPOCH   = 565
BSTAR          = .70197E-3
MEAN_MOTION_DOT = .27739E-3
MEAN_MOTION_DDOT = 0

CCSDS_OMM_VERS = 2.0
CREATION_DATE  = 
ORIGINATOR     = 

OBJECT_NAME    = STARLINK-35131
OBJECT_ID      = 2025-235T
CENTER_NAME    = EARTH
REF_FRAME      = TEME
TIME_SYSTEM    = UTC
MEAN_ELEMENT_THEORY = SGP/SGP4

EPOCH          = 2025-11-16T12:00:02.000160
MEAN_MOTION    = 15.39670980
ECCENTRICITY   = .0001766
INCLINATION    = 53.1609
RA_OF_ASC_NODE = 52.6459
ARG_OF_PERICENTER = 78.3350
MEAN_ANOMALY   = 102.0813

EPHEMERIS_TYPE = 0
CLASSIFICATION_TYPE = U
NORAD_CAT_ID   = 66075
ELEMENT_SET_NO = 999
REV_AT_EPOCH   = 565
BSTAR          = -.29096E-2
MEAN_MOTION_DOT = -.115238E-2
MEAN_MOTION_DDOT = 0

CCSDS_OMM_VERS = 2.0
CREATION_DATE  = 
ORIGINATOR     = 

OBJECT_NAME    = STARLINK-34801
OBJECT_ID      = 2025-235U
CENTER_NAME    = EARTH
REF_FRAME      = TEME
TIME_SYSTEM    = UTC
MEAN_ELEMENT_THEORY = SGP/SGP4

EPOCH          = 2025-11-16T12:00:02.000160
MEAN_MOTION    = 15.39542734
ECCENTRICITY   = .0000672
INCLINATION    = 53.1599
RA_OF_ASC_NODE = 52.7491
ARG_OF_PERICENTER = 85.5424
MEAN_ANOMALY   = 43.4051

EPHEMERIS_TYPE = 0
CLASSIFICATION_TYPE = U
NORAD_CAT_ID   = 66076
ELEMENT_SET_NO = 999
REV_AT_EPOCH   = 565
BSTAR          = .12748E-2
MEAN_MOTION_DOT = .50802E-3
MEAN_MOTION_DDOT = 0

CCSDS_OMM_VERS = 2.0
CREATION_DATE  = 
ORIGINATOR     = 

OBJECT_NAME    = STARLINK-35129
OBJECT_ID      = 2025-235V
CENTER_NAME    = EARTH
REF_FRAME      = TEME
TIME_SYSTEM    = UTC
MEAN_ELEMENT_THEORY = SGP/SGP4

EPOCH          = 2025-11-16T12:00:02.000160
MEAN_MOTION    = 15.39656449
ECCENTRICITY   = .0001624
INCLINATION    = 53.1604
RA_OF_ASC_NODE = 52.6985
ARG_OF_PERICENTER = 58.8757
MEAN_ANOMALY   = 95.8133

EPHEMERIS_TYPE = 0
CLASSIFICATION_TYPE = U
NORAD_CAT_ID   = 66077
ELEMENT_SET_NO = 999
REV_AT_EPOCH   = 565
BSTAR          = -.26435E-2
MEAN_MOTION_DOT = -.104825E-2
MEAN_MOTION_DDOT = 0

CCSDS_OMM_VERS = 2.0
CREATION_DATE  = 
ORIGINATOR     = 

OBJECT_NAME    = STARLINK-35116
OBJECT_ID      = 2025-235W
CENTER_NAME    = EARTH
REF_FRAME      = TEME
TIME_SYSTEM    = UTC
MEAN_ELEMENT_THEORY = SGP/SGP4

EPOCH          = 2025-11-16T12:00:02.000160
MEAN_MOTION    = 15.42048973
ECCENTRICITY   = .0001449
INCLINATION    = 53.1608
RA_OF_ASC_NODE = 52.5463
ARG_OF_PERICENTER = 89.3441
MEAN_ANOMALY   = 140.5897

EPHEMERIS_TYPE = 0
CLASSIFICATION_TYPE = U
NORAD_CAT_ID   = 66078
ELEMENT_SET_NO = 999
REV_AT_EPOCH   = 565
BSTAR          = -.61733E-1
MEAN_MOTION_DOT = -.2381883E-1
MEAN_MOTION_DDOT = 0

CCSDS_OMM_VERS = 2.0
CREATION_DATE  = 
ORIGINATOR     = 

OBJECT_NAME    = STARLINK-35402
OBJECT_ID      = 2025-235X
CENTER_NAME    = EARTH
REF_FRAME      = TEME
TIME_SYSTEM    = UTC
MEAN_ELEMENT_THEORY = SGP/SGP4

EPOCH          = 2025-11-16T12:00:02.000160
MEAN_MOTION    = 15.44927056
ECCENTRICITY   = .0001349
INCLINATION    = 53.1609
RA_OF_ASC_NODE = 52.5141
ARG_OF_PERICENTER = 84.5702
MEAN_ANOMALY   = 161.9215

EPHEMERIS_TYPE = 0
CLASSIFICATION_TYPE = U
NORAD_CAT_ID   = 66079
ELEMENT_SET_NO = 999
REV_AT_EPOCH   = 565
BSTAR          = -.48621E-1
MEAN_MOTION_DOT = -.206437E-1
MEAN_MOTION_DDOT = 0

CCSDS_OMM_VERS = 2.0
CREATION_DATE  = 
ORIGINATOR     = 

OBJECT_NAME    = STARLINK-35325
OBJECT_ID      = 2025-235Y
CENTER_NAME    = EARTH
REF_FRAME      = TEME
TIME_SYSTEM    = UTC
MEAN_ELEMENT_THEORY = SGP/SGP4

EPOCH          = 2025-11-16T12:00:02.000160
MEAN_MOTION    = 15.39573407
ECCENTRICITY   = .0001629
INCLINATION    = 53.1612
RA_OF_ASC_NODE = 52.5935
ARG_OF_PERICENTER = 66.4933
MEAN_ANOMALY   = 139.7140

EPHEMERIS_TYPE = 0
CLASSIFICATION_TYPE = U
NORAD_CAT_ID   = 66080
ELEMENT_SET_NO = 999
REV_AT_EPOCH   = 565
BSTAR          = .12011E-2
MEAN_MOTION_DOT = .47873E-3
MEAN_MOTION_DDOT = 0

CCSDS_OMM_VERS = 2.0
CREATION_DATE  = 
ORIGINATOR     = 

OBJECT_NAME    = STARLINK-35403
OBJECT_ID      = 2025-235Z
CENTER_NAME    = EARTH
REF_FRAME      = TEME
TIME_SYSTEM    = UTC
MEAN_ELEMENT_THEORY = SGP/SGP4

EPOCH          = 2025-11-16T12:00:02.000160
MEAN_MOTION    = 15.49364693
ECCENTRICITY   = .0001266
INCLINATION    = 53.1608
RA_OF_ASC_NODE = 52.4920
ARG_OF_PERICENTER = 93.9964
MEAN_ANOMALY   = 164.0034

EPHEMERIS_TYPE = 0
CLASSIFICATION_TYPE = U
NORAD_CAT_ID   = 66081
ELEMENT_SET_NO = 999
REV_AT_EPOCH   = 565
BSTAR          = -.30709E-2
MEAN_MOTION_DOT = -.167952E-2
MEAN_MOTION_DDOT = 0

